{
    "links": {
        "self": "http://www.neowsapp.com/rest/v1/neo/3338022?api_key=iIulBulltgU6a56xZRHN4H3l9WmuAYTsLGpBGhQ2"
    },
    "id": "3338022",
    "neo_reference_id": "3338022",
    "name": "(2006 QA)",
    "designation": "2006 QA",
    "nasa_jpl_url": "http://ssd.jpl.nasa.gov/sbdb.cgi?sstr=3338022",
    "absolute_magnitude_h": 23.2,
    "estimated_diameter": {
        "kilometers": {
            "estimated_diameter_min": 0.0608912622,
            "estimated_diameter_max": 0.1361570015
        },
        "meters": {
            "estimated_diameter_min": 60.8912622106,
            "estimated_diameter_max": 136.1570015386
        },
        "miles": {
            "estimated_diameter_min": 0.0378360645,
            "estimated_diameter_max": 0.0846040122
        },
        "feet": {
            "estimated_diameter_min": 199.7744887109,
            "estimated_diameter_max": 446.7093369279
        }
    },
    "is_potentially_hazardous_asteroid": false,
    "close_approach_data": [
        {
            "close_approach_date": "2004-04-22",
            "close_approach_date_full": "2004-Apr-22 11:40",
            "epoch_date_close_approach": 1082634000000,
            "relative_velocity": {
                "kilometers_per_second": "4.0002224753",
                "kilometers_per_hour": "14400.8009111345",
                "miles_per_hour": "8948.0976550324"
            },
            "miss_distance": {
                "astronomical": "0.9285346934",
                "lunar": "361.1999957326",
                "kilometers": "138906812.353743058",
                "miles": "86312690.8239598804"
            },
            "orbiting_body": "Juptr"
        },
        {
            "close_approach_date": "2006-08-24",
            "close_approach_date_full": "2006-Aug-24 13:04",
            "epoch_date_close_approach": 1156424640000,
            "relative_velocity": {
                "kilometers_per_second": "8.8647681084",
                "kilometers_per_hour": "31913.1651902409",
                "miles_per_hour": "19829.5997816805"
            },
            "miss_distance": {
                "astronomical": "0.0640588641",
                "lunar": "24.9188981349",
                "kilometers": "9583069.623979467",
                "miles": "5954643.3438599646"
            },
            "orbiting_body": "Earth"
        },
        {
            "close_approach_date": "2063-09-30",
            "close_approach_date_full": "2063-Sep-30 03:27",
            "epoch_date_close_approach": 2958348420000,
            "relative_velocity": {
                "kilometers_per_second": "4.4191433724",
                "kilometers_per_hour": "15908.9161407475",
                "miles_per_hour": "9885.1818097883"
            },
            "miss_distance": {
                "astronomical": "1.0712400896",
                "lunar": "416.7123948544",
                "kilometers": "160255235.662769152",
                "miles": "99577985.9482802176"
            },
            "orbiting_body": "Juptr"
        }
    ],
    "orbital_data": {
        "orbit_id": "11",
        "orbit_determination_date": "2017-04-06 09:08:17",
        "first_observation_date": "2006-08-16",
        "last_observation_date": "2006-09-24",
        "data_arc_in_days": 39,
        "observations_used": 34,
        "orbit_uncertainty": "7",
        "minimum_orbit_intersection": ".0602363",
        "jupiter_tisserand_invariant": "3.018",
        "epoch_osculation": "2459000.5",
        "eccentricity": ".6221136378549956",
        "semi_major_axis": "2.766685337400249",
        "inclination": "5.309960171814859",
        "ascending_node_longitude": "133.758541185206",
        "orbital_period": "1680.885301695876",
        "perihelion_distance": "1.045492657350104",
        "perihelion_argument": "216.386565224483",
        "aphelion_distance": "4.487878017450394",
        "perihelion_time": "2459022.209047506175",
        "mean_anomaly": "355.3505113678261",
        "mean_motion": ".2141728526252144",
        "equinox": "J2000",
        "orbit_class": {
            "orbit_class_type": "AMO",
            "orbit_class_description": "Near-Earth asteroid orbits similar to that of 1221 Amor",
            "orbit_class_range": "1.017 AU < q (perihelion) < 1.3 AU"
        }
    },
    "is_sentry_object": false
}